ZHUHAI-1 01 (CAS-4A)    
1 42761U 17034D   23222.36205017  .00009341  00000+0  45649-3 0  9997
2 42761  43.0133 172.8382 0010233  93.9982 266.2037 15.18374955339870
MAX VALIER SAT          
1 42778U 17036P   23222.09113465  .00026189  00000+0  62338-3 0  9995
2 42778  97.1506 255.7460 0005429 253.9855 106.0795 15.41582222341024
RADFXSAT (FOX-1B)       
1 43017U 17073E   23221.63119076  .00005764  00000+0  40219-3 0  9996
2 43017  97.6228 103.8712 0229106 252.5550 105.0505 14.86914474309126
FOX-1D (AO-92)          
1 43137U 18004AC  23222.17185001  .00043798  00000+0  77149-3 0  9996
2 43137  97.3247 302.0997 0003596 293.9792  66.1083 15.50307351310655
DIWATA-2B               
1 43678U 18084H   23222.38925870  .00001325  00000+0  13120-3 0  9992
2 43678  98.0300   7.4781 0009222 350.6583   9.4463 14.93618043260353
ES'HAIL 2               
1 43700U 18090A   23222.19277884  .00000137  00000+0  00000+0 0  9998
2 43700   0.0077 104.6335 0002426  75.4034 233.5704  1.00274332 17474
FOX-1CLIFF (AO-95)      
1 43770U 18099N   23222.12134966  .00006146  00000+0  49215-3 0  9991
2 43770  97.5725 282.2061 0013534 332.7330  27.3182 15.00440467255697
ITASAT 1                
1 43786U 18099AE  23222.13654997  .00004324  00000+0  35148-3 0  9996
2 43786  97.5770 283.2595 0013689 313.4664  46.5420 15.00027645255736
JY1SAT (JO-97)          
1 43803U 18099AX  23221.97347063  .00005982  00000+0  46622-3 0  9990
2 43803  97.5727 283.1972 0012040 282.3756  77.6121 15.01505832255768
UWE-4                   
1 43880U 18111E   23221.96673803  .00007087  00000+0  53089-3 0  9996
2 43880  97.6266 126.3244 0018401 354.8622   5.2411 15.02874326250443
NEXUS (FO-99)           
1 43937U 19003F   23222.30171055  .00093131  00000+0  11214-2 0  9999
2 43937  97.0812 249.0951 0012103  87.7454 272.5190 15.60421527254467
JAISAT-1                
1 44419U 19038F   23221.40971285  .00026584  00000+0  83407-3 0  9998
2 44419  97.6758 205.0094 0017016 111.9024 248.4028 15.32876585226681
DUCHIFAT-3              
1 44854U 19089C   23222.41622503  .00008830  00000+0  58007-3 0  9997
2 44854  36.9606 126.9732 0007309  27.0301 333.0822 15.07157741201012
CAS-6 (TIANQIN 1)       
1 44881U 19093C   23222.49141016  .00001043  00000+0  13584-3 0  9995
2 44881  97.8597 300.0182 0013301 259.9677 100.0035 14.82661932196848
RS-44 & BREEZE-KM R/B   
1 44909U 19096E   23221.38663226  .00000005  00000+0 -29522-4 0  9996
2 44909  82.5238 312.6000 0218355  62.7829 299.5340 12.79722156169017
BY70-2                  
1 45857U 20042B   23222.48463968  .00006580  00000+0  64422-3 0  9995
2 45857  97.9238 302.6463 0009835 182.1792 177.9386 14.92603243167636
SALSAT                  
1 46495U 20068K   23222.39925625  .00005236  00000+0  34145-3 0  9991
2 46495  97.7719 171.0030 0013599 299.1149  60.8716 15.08265637157244
RADFXSAT-2 (AO-109)     
1 47311U 21002C   23221.98808812  .00030753  00000+0  72129-3 0  9996
2 47311  60.6781 211.2668 0006053 306.9045  53.1495 15.41912017142581
UVSQ-SAT                
1 47438U 21006AB  23221.63181831  .00015848  00000+0  61659-3 0  9991
2 47438  97.3804 278.0180 0008081 246.1822 113.8570 15.26071848140795
LEDSAT                  
1 49069U 21073D   23221.69893856  .00008232  00000+0  44041-3 0  9995
2 49069  97.4791 291.6921 0021995 296.0370  63.8597 15.15102949109005
XW-3 (CAS-9)            
1 50466U 21131B   23222.47633511  .00000637  00000+0  22084-3 0  9994
2 50466  98.5507 303.8525 0003798 354.5742   5.5404 14.38998160 85167
TEVEL-3                 
1 50988U 22002E   23222.46746343  .00022226  00000+0  83057-3 0  9993
2 50988  97.4299 289.1337 0007678  53.7952 306.3996 15.27342179 87040
TEVEL-8                 
1 50989U 22002F   23222.42313210  .00021672  00000+0  81184-3 0  9996
2 50989  97.4313 289.1547 0007671  53.3441 306.8502 15.27267073 87039
TEVEL-5                 
1 50998U 22002Q   23222.44666588  .00022343  00000+0  81159-3 0  9995
2 50998  97.4292 289.5643 0008561  47.2653 312.9306 15.28269675 87077
TEVEL-6                 
1 50999U 22002R   23222.37972199  .00022483  00000+0  81678-3 0  9997
2 50999  97.4291 289.4911 0008562  47.1395 313.0562 15.28264569 87069
TEVEL-1                 
1 51013U 22002AF  23222.41349820  .00022207  00000+0  83129-3 0  9996
2 51013  97.4290 289.0139 0007563  53.6645 306.5291 15.27285532 87039
TEVEL-7                 
1 51062U 22002CG  23222.42337109  .00021653  00000+0  81052-3 0  9995
2 51062  97.4309 289.1266 0007616  52.9140 307.2794 15.27291317 87031
TEVEL-4                 
1 51063U 22002CH  23222.43152574  .00021206  00000+0  79544-3 0  9995
2 51063  97.4307 289.1127 0007646  52.8866 307.3070 15.27227766 87038
TEVEL-2                 
1 51069U 22002CP  23222.40358836  .00022379  00000+0  83615-3 0  9993
2 51069  97.4296 289.0399 0007622  53.8884 306.3059 15.27346248 87039
GREENCUBE               
1 53106U 22080B   23220.19253009 -.00000003  00000+0  00000+0 0  9997
2 53106  70.1585 301.6514 0008561 176.9672 183.1040  6.42556855 25090
CYCLOPS (RS29S SXC3-21*)
1 53373U 22096D   23222.43301757  .00039500  00000+0  90255-3 0  9991
2 53373  97.4062 129.4755 0002949  93.4432 266.7152 15.42741564 56046
MONITOR-1 (RS32S SXC3-*)
1 53374U 22096E   23222.43784458  .00035182  00000+0  83806-3 0  9991
2 53374  97.4037 129.2569 0002230  89.7124 270.4378 15.41515632 56034
KUZBASS-300 (RS34S SXC*)
1 53375U 22096F   23222.40760840  .00026178  00000+0  67992-3 0  9991
2 53375  97.4072 128.7540 0002035  87.8258 272.3220 15.38939818 55990
UTMN (RS23S SXC3-216)   
1 53376U 22096G   23222.41002934  .00029052  00000+0  73876-3 0  9998
2 53376  97.4067 128.8933 0002351  88.7542 271.3973 15.39567493 56003
MIET-AIS (RS28S SXC3-2*)
1 53377U 22096H   23222.43737367  .00026283  00000+0  69853-3 0  9999
2 53377  97.4081 128.7285 0001874  88.0173 272.1287 15.38229956 55993
KAI-1 (RS26S)           
1 53378U 22096J   23222.40265777  .00020975  00000+0  59156-3 0  9995
2 53378  97.4099 128.3441 0001802  86.9144 273.2306 15.36431805 55966
ISOI (RS19S SXC3-219)   
1 53381U 22096M   23222.41927244  .00025268  00000+0  65234-3 0  9998
2 53381  97.4071 129.0305 0002566 164.3947 195.7378 15.39131263 56019
CUBESX-HSE-2 (RS21S)    
1 53383U 22096P   23222.43840008  .00028110  00000+0  70958-3 0  9992
2 53383  97.4071 129.1704 0002812 169.8520 190.2783 15.39798077 56029
SIREN (RS30S SXC3-217)  
1 53384U 22096Q   23222.40021932  .00023001  00000+0  61924-3 0  9994
2 53384  97.4086 128.7877 0002928 172.3421 187.7869 15.37856088 55995
GEOSCAN-EDELVEIS (RS20S)
1 53385U 22096R   23222.40890994  .00041164  00000+0  88937-3 0  9990
2 53385  97.4044 130.0888 0004330 160.8539 199.2873 15.44394940 56119
VIZARD (RS33S SXC3-215) 
1 53386U 22096S   23222.42528852  .00061171  00000+0  10943-2 0  9995
2 53386  97.4054 131.1359 0004274 158.3624 201.7808 15.49784967 56170
CAS-5A (FO-118)         
1 54684U 22167C   23222.44748808  .00012929  00000+0  68755-3 0  9995
2 54684  97.5684 359.7189 0013949 144.8601 215.3554 15.15316585 36891
STRATOSAT-TK 1 (RS52S)  
1 57167U 23091B   23222.40483108  .00008518  00000+0  62118-3 0  9992
2 57167  97.6627 272.6852 0020172 102.5654 257.7829 15.03800478  6587
UMKA 1 (RS40S)          
1 57172U 23091G   23222.40407012  .00004093  00000+0  30214-3 0  9994
2 57172  97.6627 272.6865 0020247 101.2488 259.1014 15.03657357  6589
CUBESX-HSE 3 (RS42S)    
1 57178U 23091N   23222.40837586  .00005478  00000+0  40352-3 0  9995
2 57178  97.6663 272.7050 0021102  96.8739 263.4888 15.03572221  6584
MONITOR-4 (RS57S)       
1 57182U 23091S   23222.41009466  .00005230  00000+0  38621-3 0  9991
2 57182  97.6652 272.6970 0021253  97.5936 262.7704 15.03497941  6585
MONITOR-2 (RS39S)       
1 57184U 23091U   23222.38448166  .00002546  00000+0  18675-3 0  9997
2 57184  97.6643 272.7288 0016959  91.8521 268.4647 15.04288816  6583
SVYATOBOR 1 (RS60S)     
1 57187U 23091X   23222.37859627  .00004357  00000+0  31423-3 0  9995
2 57187  97.6638 272.7362 0016484  90.6031 269.7084 15.04552359  6584
VIZARD-METEO (RS38S)    
1 57189U 23091Z   23222.43572652  .00006246  00000+0  44427-3 0  9991
2 57189  97.6629 272.8091 0015281  89.4340 270.8637 15.04918947  6596
NANOZOND 1 (RS49S)      
1 57190U 23091AA  23222.42952829  .00008512  00000+0  59913-3 0  9994
2 57190  97.6610 272.7973 0013994  95.7602 264.5221 15.05219603  6599
POLYTECH-UNIVERSE 3 (R*)
1 57191U 23091AB  23222.40964123  .00003664  00000+0  27241-3 0  9995
2 57191  97.6627 272.6790 0020671 101.8067 258.5479 15.03443238  6586
UTMN 2 (RS27S)          
1 57203U 23091AP  23222.43795585  .00005540  00000+0  39559-3 0  9996
2 57203  97.6628 272.8064 0015614  89.4810 270.8205 15.04823539  6597
ARCCUBE 1 (RS25S)       
1 57205U 23091AR  23222.43084701  .00009321  00000+0  65559-3 0  9999
2 57205  97.6592 272.7866 0014356  97.4475 262.8383 15.05213509  6595
KUZGTU 1 (RS47S)        
1 57217U 23091AV  23222.40709324  .00005402  00000+0  39761-3 0  9996
2 57217  97.6638 272.6927 0021051  98.0287 262.3328 15.03608614  6580
